[{"OBJECT_NAME":"STARLINK-2514","OBJECT_ID":"2021-036BH","EPOCH":"2026-03-10T00:00:02.999808","MEAN_MOTION":15.29233473,"ECCENTRICITY":0.00013984,"INCLINATION":53.1518,"RA_OF_ASC_NODE":99.2959,"ARG_OF_PERICENTER":94.8931,"MEAN_ANOMALY":6.894,"EPHEMERIS_TYPE":0,"CLASSIFICATION_TYPE":"U","NORAD_CAT_ID":48331,"ELEMENT_SET_NO":999,"REV_AT_EPOCH":579,"BSTAR":0.0039897327,"MEAN_MOTION_DOT":0.00116147,"MEAN_MOTION_DDOT":0},{"OBJECT_NAME":"CZ-6A DEB","OBJECT_ID":"2022-151QV","EPOCH":"2026-03-09T04:36:08.895168","MEAN_MOTION":15.24642942,"ECCENTRICITY":0.00273347,"INCLINATION":98.639,"RA_OF_ASC_NODE":154.2763,"ARG_OF_PERICENTER":174.5721,"MEAN_ANOMALY":185.5815,"EPHEMERIS_TYPE":0,"CLASSIFICATION_TYPE":"U","NORAD_CAT_ID":54908,"ELEMENT_SET_NO":999,"REV_AT_EPOCH":17373,"BSTAR":0.0098290719,"MEAN_MOTION_DOT":0.00253193,"MEAN_MOTION_DDOT":0}]
